[{"OBJECT_NAME":"OBJECT H","OBJECT_ID":"2023-091H","EPOCH":"2026-03-09T22:34:46.487712","MEAN_MOTION":15.26380881,"ECCENTRICITY":0.00117854,"INCLINATION":97.5166,"RA_OF_ASC_NODE":131.4381,"ARG_OF_PERICENTER":104.1062,"MEAN_ANOMALY":256.1487,"EPHEMERIS_TYPE":0,"CLASSIFICATION_TYPE":"U","NORAD_CAT_ID":57173,"ELEMENT_SET_NO":999,"REV_AT_EPOCH":14915,"BSTAR":0.00056321781,"MEAN_MOTION_DOT":0.00014617,"MEAN_MOTION_DDOT":0},{"OBJECT_NAME":"STARLINK-32701","OBJECT_ID":"2025-003Z","EPOCH":"2026-03-09T23:10:54.661152","MEAN_MOTION":15.27600706,"ECCENTRICITY":0.00032858,"INCLINATION":42.9999,"RA_OF_ASC_NODE":287.4223,"ARG_OF_PERICENTER":242.1774,"MEAN_ANOMALY":117.8745,"EPHEMERIS_TYPE":0,"CLASSIFICATION_TYPE":"U","NORAD_CAT_ID":62510,"ELEMENT_SET_NO":999,"REV_AT_EPOCH":6659,"BSTAR":0.0014399808,"MEAN_MOTION_DOT":0.00039605,"MEAN_MOTION_DDOT":0}]
